COMMENT,ORIGINATOR,NORAD_CAT_ID,OBJECT_NAME,OBJECT_TYPE,CLASSIFICATION_TYPE,INTLDES,EPOCH,EPOCH_MICROSECONDS,MEAN_MOTION,ECCENTRICITY,INCLINATION,RA_OF_ASC_NODE,ARG_OF_PERICENTER,MEAN_ANOMALY,EPHEMERIS_TYPE,ELEMENT_SET_NO,REV_AT_EPOCH,BSTAR,MEAN_MOTION_DOT,MEAN_MOTION_DDOT,FILE,TLE_LINE0,TLE_LINE1,TLE_LINE2,OBJECT_ID,OBJECT_NUMBER,SEMIMAJOR_AXIS,PERIOD,APOGEE,PERIGEE,DECAYED
"GENERATED VIA SPACETRACK.ORG API","18 SPCS","48893","SPACEBEE-106","PAYLOAD","U","21059Q","2022-07-03 20:55:41","347776","15.16038236","0.0009923","97.5595","314.541","58.5378","301.6823","0","999","5642","0.00024918","0.00004729","0","3507292","0 SPACEBEE-106","1 48893U 21059Q   22184.87200634  .00004729  00000-0  24918-3 0  9995","2 48893  97.5595 314.5410 0009923  58.5378 301.6823 15.16038236 56426","2021-059Q","48893","6895.965","94.984","524.673","510.987","0"
"GENERATED VIA SPACETRACK.ORG API","18 SPCS","48893","SPACEBEE-106","PAYLOAD","U","21059Q","2022-07-04 08:00:59","993280","15.16043927","0.0009894","97.5594","315.0011","57.1484","303.07","0","999","5649","0.00025759","0.00004891","0","3507601","0 SPACEBEE-106","1 48893U 21059Q   22185.33402770  .00004891  00000-0  25759-3 0  9996","2 48893  97.5594 315.0011 0009894  57.1484 303.0700 15.16043927 56498","2021-059Q","48893","6895.948","94.984","524.636","510.990","0"
"GENERATED VIA SPACETRACK.ORG API","18 SPCS","48893","SPACEBEE-106","PAYLOAD","U","21059Q","2022-07-04 22:16:23","780928","15.16050218","0.0009833","97.5593","315.5927","55.2123","305.0034","0","999","5658","0.00026259","0.00004988","0","3507746","0 SPACEBEE-106","1 48893U 21059Q   22185.92805302  .00004988  00000-0  26259-3 0  9992","2 48893  97.5593 315.5927 0009833  55.2123 305.0034 15.16050218 56583","2021-059Q","48893","6895.929","94.984","524.575","511.013","0"
"GENERATED VIA SPACETRACK.ORG API","18 SPCS","48893","SPACEBEE-106","PAYLOAD","U","21059Q","2022-07-05 07:46:39","533088","15.16055063","0.0009807","97.5593","315.987","53.9996","306.2144","0","999","5664","0.00028601","0.0000544","0","3508171","0 SPACEBEE-106","1 48893U 21059Q   22186.32406867  .00005440  00000-0  28601-3 0  9997","2 48893  97.5593 315.9870 0009807  53.9996 306.2144 15.16055063 56643","2021-059Q","48893","6895.914","94.983","524.542","511.017","0"
"GENERATED VIA SPACETRACK.ORG API","18 SPCS","48893","SPACEBEE-106","PAYLOAD","U","21059Q","2022-07-05 20:27:00","391104","15.16060912","0.0009748","97.5592","316.5128","52.3015","307.91","0","999","5672","0.0003042","0.00005792","0","3508487","0 SPACEBEE-106","1 48893U 21059Q   22186.85208786  .00005792  00000-0  30420-3 0  9997","2 48893  97.5592 316.5128 0009748  52.3015 307.9100 15.16060912 56722","2021-059Q","48893","6895.897","94.983","524.484","511.039","0"
"GENERATED VIA SPACETRACK.ORG API","18 SPCS","48893","SPACEBEE-106","PAYLOAD","U","21059Q","2022-07-06 07:32:18","492288","15.16065243","0.0009713","97.5591","316.9729","50.8788","309.3306","0","999","5679","0.00028729","0.00005467","0","3508782","0 SPACEBEE-106","1 48893U 21059Q   22187.31410292  .00005467  00000-0  28729-3 0  9994","2 48893  97.5591 316.9729 0009713  50.8788 309.3306 15.16065243 56797","2021-059Q","48893","6895.883","94.983","524.446","511.050","0"
"GENERATED VIA SPACETRACK.ORG API","18 SPCS","48893","SPACEBEE-106","PAYLOAD","U","21059Q","2022-07-06 15:27:31","331232","15.16069797","0.0009689","97.5591","317.3015","49.8505","310.3574","0","999","5684","0.00031696","0.00006039","0","3509059","0 SPACEBEE-106","1 48893U 21059Q   22187.64411263  .00006039  00000-0  31696-3 0  9992","2 48893  97.5591 317.3015 0009689  49.8505 310.3574 15.16069797 56840","2021-059Q","48893","6895.870","94.982","524.416","511.053","0"
"GENERATED VIA SPACETRACK.ORG API","18 SPCS","48893","SPACEBEE-106","PAYLOAD","U","21059Q","2022-07-07 07:17:56","814720","15.16075813","0.0009662","97.559","317.9588","47.926","312.2793","0","999","5694","0.00027768","0.00005283","0","3509293","0 SPACEBEE-106","1 48893U 21059Q   22188.30412980  .00005283  00000-0  27768-3 0  9998","2 48893  97.5590 317.9588 0009662  47.9260 312.2793 15.16075813 56949","2021-059Q","48893","6895.851","94.982","524.379","511.054","0"
"GENERATED VIA SPACETRACK.ORG API","18 SPCS","48893","SPACEBEE-106","PAYLOAD","U","21059Q","2022-07-07 19:58:16","922784","15.16086607","0.0009629","97.559","318.4845","46.2351","313.9676","0","999","5702","0.00039225","0.00007495","0","3509470","0 SPACEBEE-106","1 48893U 21059Q   22188.83214031  .00007495  00000-0  39225-3 0  9991","2 48893  97.5590 318.4845 0009629  46.2351 313.9676 15.16086607 57028","2021-059Q","48893","6895.819","94.981","524.324","511.044","0"
"GENERATED VIA SPACETRACK.ORG API","18 SPCS","48893","SPACEBEE-106","PAYLOAD","U","21059Q","2022-07-08 07:03:34","312896","15.16092319","0.0009619","97.5591","318.9446","44.7902","315.4106","0","999","5709","0.00036864","0.0000704","0","3509724","0 SPACEBEE-106","1 48893U 21059Q   22189.29414714  .00007040  00000-0  36864-3 0  9994","2 48893  97.5591 318.9446 0009619  44.7902 315.4106 15.16092319 57094","2021-059Q","48893","6895.801","94.981","524.299","511.033","0"
"GENERATED VIA SPACETRACK.ORG API","18 SPCS","48893","SPACEBEE-106","PAYLOAD","U","21059Q","2022-07-08 11:48:41","690016","15.16096277","0.0009615","97.5591","319.1418","44.2372","315.9627","0","999","5712","0.00039569","0.00007563","0","3509949","0 SPACEBEE-106","1 48893U 21059Q   22189.49214919  .00007563  00000-0  39569-3 0  9996","2 48893  97.5591 319.1418 0009615  44.2372 315.9627 15.16096277 57122","2021-059Q","48893","6895.789","94.981","524.285","511.024","0"
"GENERATED VIA SPACETRACK.ORG API","18 SPCS","48893","SPACEBEE-106","PAYLOAD","U","21059Q","2022-07-08 19:43:53","880960","15.16101817","0.0009595","97.559","319.4704","43.1699","317.0284","0","999","5717","0.00037518","0.00007169","0","3510087","0 SPACEBEE-106","1 48893U 21059Q   22189.82215140  .00007169  00000-0  37518-3 0  9994","2 48893  97.5590 319.4704 0009595  43.1699 317.0284 15.16101817 57173","2021-059Q","48893","6895.773","94.980","524.254","511.021","0"
"GENERATED VIA SPACETRACK.ORG API","18 SPCS","48893","SPACEBEE-106","PAYLOAD","U","21059Q","2022-07-09 08:24:13","209696","15.16109156","0.0009556","97.559","319.9961","41.503","318.6927","0","999","5725","0.00031937","0.00006092","0","3510410","0 SPACEBEE-106","1 48893U 21059Q   22190.35015289  .00006092  00000-0  31937-3 0  9999","2 48893  97.5590 319.9961 0009556  41.5030 318.6927 15.16109156 57255","2021-059Q","48893","6895.750","94.980","524.205","511.026","0"
"GENERATED VIA SPACETRACK.ORG API","18 SPCS","48893","SPACEBEE-106","PAYLOAD","U","21059Q","2022-07-09 08:24:13","209696","15.16109156","0.0009556","97.559","319.9961","41.503","318.6927","0","999","5725","0.00031937","0.00006092","0","3510582","0 SPACEBEE-106","1 48893U 21059Q   22190.35015289  .00006092  00000-0  31937-3 0  9999","2 48893  97.5590 319.9961 0009556  41.5030 318.6927 15.16109156 57255","2021-059Q","48893","6895.750","94.980","524.205","511.026","0"
"GENERATED VIA SPACETRACK.ORG API","18 SPCS","48893","SPACEBEE-106","PAYLOAD","U","21059Q","2022-07-09 14:44:22","763040","15.16113613","0.0009526","97.559","320.259","40.6658","319.5285","0","999","5729","0.00031836","0.00006074","0","3510681","0 SPACEBEE-106","1 48893U 21059Q   22190.61415235  .00006074  00000-0  31836-3 0  9991","2 48893  97.5590 320.2590 0009526  40.6658 319.5285 15.16113613 57295","2021-059Q","48893","6895.737","94.980","524.171","511.033","0"
"GENERATED VIA SPACETRACK.ORG API","18 SPCS","48893","SPACEBEE-106","PAYLOAD","U","21059Q","2022-07-10 08:09:48","810528","15.16123234","0.0009466","97.559","320.982","38.2651","321.9251","0","999","5740","0.00028576","0.00005446","0","3511121","0 SPACEBEE-106","1 48893U 21059Q   22191.34014827  .00005446  00000-0  28576-3 0  9993","2 48893  97.5590 320.9820 0009466  38.2651 321.9251 15.16123234 57400","2021-059Q","48893","6895.708","94.979","524.100","511.045","0"
"GENERATED VIA SPACETRACK.ORG API","18 SPCS","48893","SPACEBEE-106","PAYLOAD","U","21059Q","2022-07-10 19:15:05","189760","15.16130512","0.0009411","97.559","321.442","36.6537","323.5338","0","999","5747","0.00032968","0.00006295","0","3511165","0 SPACEBEE-106","1 48893U 21059Q   22191.80214340  .00006295  00000-0  32968-3 0  9999","2 48893  97.5590 321.4420 0009411  36.6537 323.5338 15.16130512 57475","2021-059Q","48893","6895.686","94.979","524.040","511.061","0"
"GENERATED VIA SPACETRACK.ORG API","18 SPCS","48893","SPACEBEE-106","PAYLOAD","U","21059Q","2022-07-11 07:55:23","737440","15.16136735","0.0009348","97.5591","321.9677","34.7075","325.4766","0","999","5755","0.00032815","0.00006267","0","3511668","0 SPACEBEE-106","1 48893U 21059Q   22192.33013585  .00006267  00000-0  32815-3 0  9996","2 48893  97.5591 321.9677 0009348  34.7075 325.4766 15.16136735 57558","2021-059Q","48893","6895.667","94.978","523.978","511.086","0"
"GENERATED VIA SPACETRACK.ORG API","18 SPCS","48893","SPACEBEE-106","PAYLOAD","U","21059Q","2022-07-11 19:00:39","769344","15.16145321","0.0009298","97.5593","322.4277","33.0539","327.1273","0","999","5762","0.0004108","0.00007866","0","3511818","0 SPACEBEE-106","1 48893U 21059Q   22192.79212696  .00007866  00000-0  41080-3 0  9990","2 48893  97.5593 322.4277 0009298  33.0539 327.1273 15.16145321 57624","2021-059Q","48893","6895.641","94.978","523.917","511.094","0"
"GENERATED VIA SPACETRACK.ORG API","18 SPCS","48893","SPACEBEE-106","PAYLOAD","U","21059Q","2022-07-11 22:10:44","306688","15.16147613","0.0009285","97.5593","322.5591","32.6231","327.5573","0","999","5764","0.00042399","0.00008121","0","3511893","0 SPACEBEE-106","1 48893U 21059Q   22192.92412392  .00008121  00000-0  42399-3 0  9999","2 48893  97.5593 322.5591 0009285  32.6231 327.5573 15.16147613 57649","2021-059Q","48893","6895.634","94.978","523.901","511.096","0"
